{
  "type": "FeatureCollection",
  "features": [
    {
      "type": "Feature",
      "properties": {
        "norad_id": 39773,
        "name": "EUTELSAT 3B",
        "group": "eutelsat",
        "lat": 0.072117590418672,
        "lon": 53.791456064047615,
        "alt_km": 35803.7591588744,
        "timestamp": "2025-12-18T21:31:50.654106+00:00",
        "meta_object_name": "EUTELSAT 3B",
        "meta_object_id": "2014-030A",
        "meta_epoch": "2025-12-18T04:46:38.871264",
        "meta_mean_motion": 1.00272142,
        "meta_eccentricity": 0.00042197,
        "meta_inclination": 0.0605,
        "meta_ra_of_asc_node": 1.2277,
        "meta_arg_of_pericenter": 230.7075,
        "meta_mean_anomaly": 289.8806,
        "meta_ephemeris_type": 0,
        "meta_classification_type": "U",
        "meta_norad_cat_id": 39773,
        "meta_element_set_no": 999,
        "meta_rev_at_epoch": 4225,
        "meta_bstar": 0,
        "meta_mean_motion_dot": 4.5e-07,
        "meta_mean_motion_ddot": 0,
        "tle_line1": "1 39773U 14030A   25352.19906101  .00000045  00000+0  00000+0 0  9998",
        "tle_line2": "2 39773   0.0605   1.2277 0004219 230.7075 289.8806  1.00272142 42254"
      },
      "geometry": {
        "type": "Point",
        "coordinates": [
          53.791456064047615,
          0.072117590418672
        ]
      }
    },
    {
      "type": "Feature",
      "properties": {
        "norad_id": 40425,
        "name": "EUTELSAT 115 WEST B",
        "group": "eutelsat",
        "lat": 0.009780350466605912,
        "lon": -64.19193780531913,
        "alt_km": 35784.791067534316,
        "timestamp": "2025-12-18T21:31:50.654119+00:00",
        "meta_object_name": "EUTELSAT 115 WEST B",
        "meta_object_id": "2015-010B",
        "meta_epoch": "2025-12-17T23:03:09.669312",
        "meta_mean_motion": 1.0027235,
        "meta_eccentricity": 3.218e-05,
        "meta_inclination": 0.0124,
        "meta_ra_of_asc_node": 153.6594,
        "meta_arg_of_pericenter": 106.0635,
        "meta_mean_anomaly": 57.9981,
        "meta_ephemeris_type": 0,
        "meta_classification_type": "U",
        "meta_norad_cat_id": 40425,
        "meta_element_set_no": 999,
        "meta_rev_at_epoch": 3957,
        "meta_bstar": 0,
        "meta_mean_motion_dot": 0,
        "meta_mean_motion_ddot": 0,
        "tle_line1": "1 40425U 15010B   25351.96052858  .00000000  00000+0  00000+0 0  9999",
        "tle_line2": "2 40425   0.0124 153.6594 0000321 106.0635  57.9981  1.00272350 39577"
      },
      "geometry": {
        "type": "Point",
        "coordinates": [
          -64.19193780531913,
          0.009780350466605912
        ]
      }
    },
    {
      "type": "Feature",
      "properties": {
        "norad_id": 40875,
        "name": "EUTELSAT 8 WEST B",
        "group": "eutelsat",
        "lat": 0.07088189338528927,
        "lon": 42.75159911504326,
        "alt_km": 35798.826288819466,
        "timestamp": "2025-12-18T21:31:50.654131+00:00",
        "meta_object_name": "EUTELSAT 8 WEST B",
        "meta_object_id": "2015-039B",
        "meta_epoch": "2025-12-18T03:51:38.597760",
        "meta_mean_motion": 1.00271882,
        "meta_eccentricity": 0.00043066,
        "meta_inclination": 0.0637,
        "meta_ra_of_asc_node": 352.5135,
        "meta_arg_of_pericenter": 275.7769,
        "meta_mean_anomaly": 228.6611,
        "meta_ephemeris_type": 0,
        "meta_classification_type": "U",
        "meta_norad_cat_id": 40875,
        "meta_element_set_no": 999,
        "meta_rev_at_epoch": 3784,
        "meta_bstar": 0,
        "meta_mean_motion_dot": -4e-07,
        "meta_mean_motion_ddot": 0,
        "tle_line1": "1 40875U 15039B   25352.16086340 -.00000040  00000+0  00000+0 0  9990",
        "tle_line2": "2 40875   0.0637 352.5135 0004306 275.7769 228.6611  1.00271882 37849"
      },
      "geometry": {
        "type": "Point",
        "coordinates": [
          42.75159911504326,
          0.07088189338528927
        ]
      }
    },
    {
      "type": "Feature",
      "properties": {
        "norad_id": 41310,
        "name": "EUTELSAT 9B",
        "group": "eutelsat",
        "lat": 0.012759648396006252,
        "lon": 59.72181826443089,
        "alt_km": 35801.59295710232,
        "timestamp": "2025-12-18T21:31:50.654148+00:00",
        "meta_object_name": "EUTELSAT 9B",
        "meta_object_id": "2016-005A",
        "meta_epoch": "2025-12-18T04:46:38.871264",
        "meta_mean_motion": 1.00272051,
        "meta_eccentricity": 0.00044643,
        "meta_inclination": 0.0577,
        "meta_ra_of_asc_node": 70.1501,
        "meta_arg_of_pericenter": 203.8605,
        "meta_mean_anomaly": 253.7054,
        "meta_ephemeris_type": 0,
        "meta_classification_type": "U",
        "meta_norad_cat_id": 41310,
        "meta_element_set_no": 999,
        "meta_rev_at_epoch": 3630,
        "meta_bstar": 0,
        "meta_mean_motion_dot": 8.7e-07,
        "meta_mean_motion_ddot": 0,
        "tle_line1": "1 41310U 16005A   25352.19906101  .00000087  00000+0  00000+0 0  9998",
        "tle_line2": "2 41310   0.0577  70.1501 0004464 203.8605 253.7054  1.00272051 36302"
      },
      "geometry": {
        "type": "Point",
        "coordinates": [
          59.72181826443089,
          0.012759648396006252
        ]
      }
    },
    {
      "type": "Feature",
      "properties": {
        "norad_id": 41382,
        "name": "EUTELSAT 65 WEST A",
        "group": "eutelsat",
        "lat": 0.018556667609954332,
        "lon": -14.49286428739365,
        "alt_km": 35783.10552335727,
        "timestamp": "2025-12-18T21:31:50.654160+00:00",
        "meta_object_name": "EUTELSAT 65 WEST A",
        "meta_object_id": "2016-014A",
        "meta_epoch": "2025-12-18T02:42:41.599872",
        "meta_mean_motion": 1.00269947,
        "meta_eccentricity": 0.00023133,
        "meta_inclination": 0.0559,
        "meta_ra_of_asc_node": 326.8482,
        "meta_arg_of_pericenter": 310.1608,
        "meta_mean_anomaly": 145.4298,
        "meta_ephemeris_type": 0,
        "meta_classification_type": "U",
        "meta_norad_cat_id": 41382,
        "meta_element_set_no": 999,
        "meta_rev_at_epoch": 3572,
        "meta_bstar": 0,
        "meta_mean_motion_dot": -2.51e-06,
        "meta_mean_motion_ddot": 0,
        "tle_line1": "1 41382U 16014A   25352.11298148 -.00000251  00000+0  00000+0 0  9998",
        "tle_line2": "2 41382   0.0559 326.8482 0002313 310.1608 145.4298  1.00269947 35728"
      },
      "geometry": {
        "type": "Point",
        "coordinates": [
          -14.49286428739365,
          0.018556667609954332
        ]
      }
    },
    {
      "type": "Feature",
      "properties": {
        "norad_id": 41589,
        "name": "EUTELSAT 117 WEST B",
        "group": "eutelsat",
        "lat": 0.011454956680761129,
        "lon": -66.28301605139332,
        "alt_km": 35785.32213589632,
        "timestamp": "2025-12-18T21:31:50.654172+00:00",
        "meta_object_name": "EUTELSAT 117 WEST B",
        "meta_object_id": "2016-038B",
        "meta_epoch": "2025-12-17T21:19:49.567296",
        "meta_mean_motion": 1.00271876,
        "meta_eccentricity": 3.601e-05,
        "meta_inclination": 0.0113,
        "meta_ra_of_asc_node": 157.4202,
        "meta_arg_of_pericenter": 73.0441,
        "meta_mean_anomaly": 59.2611,
        "meta_ephemeris_type": 0,
        "meta_classification_type": "U",
        "meta_norad_cat_id": 41589,
        "meta_element_set_no": 999,
        "meta_rev_at_epoch": 3484,
        "meta_bstar": 0,
        "meta_mean_motion_dot": 1.3e-07,
        "meta_mean_motion_ddot": 0,
        "tle_line1": "1 41589U 16038B   25351.88876814  .00000013  00000+0  00000+0 0  9993",
        "tle_line2": "2 41589   0.0113 157.4202 0000360  73.0441  59.2611  1.00271876 34848"
      },
      "geometry": {
        "type": "Point",
        "coordinates": [
          -66.28301605139332,
          0.011454956680761129
        ]
      }
    },
    {
      "type": "Feature",
      "properties": {
        "norad_id": 42741,
        "name": "EUTELSAT 172B",
        "group": "eutelsat",
        "lat": -0.0012783363445848738,
        "lon": -137.30120549130382,
        "alt_km": 35786.56205906447,
        "timestamp": "2025-12-18T21:31:50.654184+00:00",
        "meta_object_name": "EUTELSAT 172B",
        "meta_object_id": "2017-029B",
        "meta_epoch": "2025-12-18T07:14:24.412416",
        "meta_mean_motion": 1.00272338,
        "meta_eccentricity": 2.118e-05,
        "meta_inclination": 0.0461,
        "meta_ra_of_asc_node": 142.9449,
        "meta_arg_of_pericenter": 302.2393,
        "meta_mean_anomaly": 282.5766,
        "meta_ephemeris_type": 0,
        "meta_classification_type": "U",
        "meta_norad_cat_id": 42741,
        "meta_element_set_no": 999,
        "meta_rev_at_epoch": 3191,
        "meta_bstar": 0,
        "meta_mean_motion_dot": 2e-07,
        "meta_mean_motion_ddot": 0,
        "tle_line1": "1 42741U 17029B   25352.30167144  .00000020  00000+0  00000+0 0  9990",
        "tle_line2": "2 42741   0.0461 142.9449 0000211 302.2393 282.5766  1.00272338 31916"
      },
      "geometry": {
        "type": "Point",
        "coordinates": [
          -137.30120549130382,
          -0.0012783363445848738
        ]
      }
    }
  ]
}